NORAD_CAT_ID,OBJECT_NAME,OBJECT_TYPE,EPOCH,MEAN_MOTION,ECCENTRICITY,INCLINATION,RA_OF_ASC_NODE,ARG_OF_PERICENTER,MEAN_ANOMALY,BSTAR,MEAN_MOTION_DOT,MEAN_MOTION_DDOT,TLE_LINE0,TLE_LINE1,TLE_LINE2,SEMIMAJOR_AXIS,PERIOD,APOGEE,PERIGEE,DECAYED
51878.0,STARLINK-3575,PAYLOAD,2024-05-20 05:45:02,15.08848883,0.0001491,53.216,85.0123,102.021,258.0949,0.00065757,0.00010195,0.0,0 STARLINK-3575,1 51878U 22022AC  24141.23961542  .00010195  00000-0  65757-3 0  9990,2 51878  53.2160  85.0123 0001491 102.0210 258.0949 15.08848883123712,6917.853,95.437,540.75,538.687,0.0
51878.0,STARLINK-3575,PAYLOAD,2024-05-21 02:25:03,15.08838926,0.0001433,53.2162,81.1454,113.4584,246.6559,0.00011638,1.565e-05,0.0,0 STARLINK-3575,1 51878U 22022AC  24142.10073658  .00001565  00000-0  11638-3 0  9999,2 51878  53.2162  81.1454 0001433 113.4584 246.6559 15.08838926123845,6917.884,95.438,540.74,538.757,0.0
51878.0,STARLINK-3575,PAYLOAD,2024-05-21 05:35:50,15.08837763,0.0001426,53.2167,80.5517,107.1629,252.9519,8.0992e-05,1.001e-05,0.0,0 STARLINK-3575,1 51878U 22022AC  24142.23321832  .00001001  00000-0  80992-4 0  9998,2 51878  53.2167  80.5517 0001426 107.1629 252.9519 15.08837763123861,6917.887,95.438,540.739,538.766,0.0
51878.0,STARLINK-3575,PAYLOAD,2024-05-22 02:15:51,15.08837953,0.0001481,53.2176,76.6861,107.6115,252.5039,4.2732e-05,3.92e-06,0.0,0 STARLINK-3575,1 51878U 22022AC  24143.09434063  .00000392  00000-0  42732-4 0  9996,2 51878  53.2176  76.6861 0001481 107.6115 252.5039 15.08837953123993,6917.887,95.438,540.776,538.727,0.0
51878.0,STARLINK-3575,PAYLOAD,2024-05-23 05:17:24,15.0883551,0.0001358,53.218,71.6305,100.5153,259.5992,0.00011551,1.551e-05,0.0,0 STARLINK-3575,1 51878U 22022AC  24144.22042340  .00001551  00000-0  11551-3 0  9997,2 51878  53.2180  71.6305 0001358 100.5153 259.5992 15.08835510124165,6917.894,95.438,540.699,538.82,0.0
51878.0,STARLINK-3575,PAYLOAD,2024-05-24 05:08:11,15.08843821,0.0001324,53.218,67.1704,93.0953,267.0191,0.00012365,1.681e-05,0.0,0 STARLINK-3575,1 51878U 22022AC  24145.21401922  .00001681  00000-0  12365-3 0  9990,2 51878  53.2180  67.1704 0001324  93.0953 267.0191 15.08843821124311,6917.869,95.437,540.65,538.818,0.0
51878.0,STARLINK-3575,PAYLOAD,2024-05-24 19:26:39,15.0883699,0.000145,53.2181,64.4938,105.2008,254.9145,8.1307e-05,1.006e-05,0.0,0 STARLINK-3575,1 51878U 22022AC  24145.81018397  .00001006  00000-0  81307-4 0  9990,2 51878  53.2181  64.4938 0001450 105.2008 254.9145 15.08836990124401,6917.89,95.438,540.758,538.751,0.0
51878.0,STARLINK-3575,PAYLOAD,2024-05-24 22:37:26,15.08832392,0.0001219,53.2172,63.898,91.6555,268.4577,3.587e-05,2.83e-06,0.0,0 STARLINK-3575,1 51878U 22022AC  24145.94266818  .00000283  00000-0  35870-4 0  9997,2 51878  53.2172  63.8980 0001219  91.6555 268.4577 15.08832392124422,6917.904,95.438,540.612,538.925,0.0
51878.0,STARLINK-3575,PAYLOAD,2024-05-25 01:48:13,15.08827766,0.0001279,53.2177,63.3042,92.0151,268.0988,-2.0433e-05,-6.13e-06,0.0,0 STARLINK-3575,1 51878U 22022AC  24146.07515330 -.00000613  00000-0 -20433-4 0  9996,2 51878  53.2177  63.3042 0001279  92.0151 268.0988 15.08827766124447,6917.918,95.438,540.668,538.898,0.0
51878.0,STARLINK-3575,PAYLOAD,2024-05-25 11:20:31,15.08838907,0.0001162,53.2175,61.5277,117.3372,242.7738,4.5771e-05,4.41e-06,0.0,0 STARLINK-3575,1 51878U 22022AC  24146.47258483  .00000441  00000-0  45771-4 0  9992,2 51878  53.2175  61.5277 0001162 117.3372 242.7738 15.08838907124500,6917.884,95.438,540.553,538.945,0.0
51878.0,STARLINK-3575,PAYLOAD,2024-05-26 03:14:22,15.08843166,0.0001234,53.2175,58.5493,103.7963,256.3166,1.1982e-05,-9.7e-07,0.0,0 STARLINK-3575,1 51878U 22022AC  24147.13498590 -.00000097  00000-0  11982-4 0  9996,2 51878  53.2175  58.5493 0001234 103.7963 256.3166 15.08843166124601,6917.871,95.437,540.589,538.882,0.0
51878.0,STARLINK-3575,PAYLOAD,2024-05-26 22:19:00,15.08833314,0.0001256,53.2175,54.9811,111.7551,248.3575,0.00017328,2.47e-05,0.0,0 STARLINK-3575,1 51878U 22022AC  24147.92986741  .00002470  00000-0  17328-3 0  9998,2 51878  53.2175  54.9811 0001256 111.7551 248.3575 15.08833314124723,6917.901,95.438,540.635,538.897,0.0
51878.0,STARLINK-3575,PAYLOAD,2024-05-27 03:05:09,15.08838339,0.0001327,53.2178,54.0889,112.7053,247.4079,0.00019385,2.798e-05,0.0,0 STARLINK-3575,1 51878U 22022AC  24148.12858405  .00002798  00000-0  19385-3 0  9994,2 51878  53.2178  54.0889 0001327 112.7053 247.4079 15.08838339124753,6917.885,95.438,540.668,538.832,0.0
51878.0,STARLINK-3575,PAYLOAD,2024-05-27 11:02:05,15.0883984,7.35e-05,53.2182,52.6029,98.2254,261.8822,1.7059e-05,-1.6e-07,0.0,0 STARLINK-3575,1 51878U 22022AC  24148.45978465 -.00000016  00000-0  17059-4 0  9998,2 51878  53.2182  52.6029 0000735  98.2254 261.8822 15.08839840124801,6917.881,95.438,540.254,539.237,0.0
51878.0,STARLINK-3575,PAYLOAD,2024-05-27 22:09:47,15.08842591,0.0001354,53.2182,50.5194,109.8641,250.2497,5.5593e-05,5.97e-06,0.0,0 STARLINK-3575,1 51878U 22022AC  24148.92346605  .00000597  00000-0  55593-4 0  9993,2 51878  53.2182  50.5194 0001354 109.8641 250.2497 15.08842591124872,6917.872,95.437,540.674,538.801,0.0
51878.0,STARLINK-3575,PAYLOAD,2024-05-28 10:52:52,15.08843022,0.0001319,53.2182,48.1408,110.4549,249.6585,4.7252e-05,4.64e-06,0.0,0 STARLINK-3575,1 51878U 22022AC  24149.45338475  .00000464  00000-0  47252-4 0  9994,2 51878  53.2182  48.1408 0001319 110.4549 249.6585 15.08843022124958,6917.871,95.437,540.649,538.824,0.0
51878.0,STARLINK-3575,PAYLOAD,2024-05-28 22:00:34,15.0884228,0.0001301,53.2185,46.0578,98.8213,261.2927,-1.1645e-05,-4.73e-06,0.0,0 STARLINK-3575,1 51878U 22022AC  24149.91706699 -.00000473  00000-0 -11645-4 0  9991,2 51878  53.2185  46.0578 0001301  98.8213 261.2927 15.08842280125028,6917.873,95.437,540.638,538.838,0.0
51878.0,STARLINK-3575,PAYLOAD,2024-05-28 23:35:57,15.08842983,0.0001316,53.2182,45.7605,97.1064,263.0078,-4.428e-06,-3.58e-06,0.0,0 STARLINK-3575,1 51878U 22022AC  24149.98330618 -.00000358  00000-0 -44280-5 0  9996,2 51878  53.2182  45.7605 0001316  97.1064 263.0078 15.08842983125032,6917.871,95.437,540.647,538.826,0.0
51878.0,STARLINK-3575,PAYLOAD,2024-05-29 20:15:58,15.08840079,0.0001293,53.2177,41.8952,88.4621,271.6519,4.3933e-05,4.11e-06,0.0,0 STARLINK-3575,1 51878U 22022AC  24150.84442604  .00000411  00000-0  43933-4 0  9993,2 51878  53.2177  41.8952 0001293  88.4621 271.6519 15.08840079125167,6917.88,95.438,540.64,538.851,0.0
51878.0,STARLINK-3575,PAYLOAD,2024-05-29 21:51:21,15.08840485,0.0001304,53.2179,41.5979,87.7953,272.3189,4.5729e-05,4.4e-06,0.0,0 STARLINK-3575,1 51878U 22022AC  24150.91066576  .00000440  00000-0  45729-4 0  9998,2 51878  53.2179  41.5979 0001304  87.7953 272.3189 15.08840485125171,6917.879,95.438,540.646,538.842,0.0
51878.0,STARLINK-3575,PAYLOAD,2024-05-30 02:37:30,15.08841263,0.0001312,53.2181,40.7063,89.4857,270.6285,4.7128e-05,4.62e-06,0.0,0 STARLINK-3575,1 51878U 22022AC  24151.10938507  .00000462  00000-0  47128-4 0  9991,2 51878  53.2181  40.7063 0001312  89.4857 270.6285 15.08841263125207,6917.877,95.437,540.649,538.834,0.0
51878.0,STARLINK-3575,PAYLOAD,2024-05-30 20:06:45,15.08834991,0.000136,53.2182,37.435,94.1398,265.975,1.3737e-05,-6.9e-07,0.0,0 STARLINK-3575,1 51878U 22022AC  24151.83803151 -.00000069  00000-0  13737-4 0  9990,2 51878  53.2182  37.4350 0001360  94.1398 265.9750 15.08834991125312,6917.896,95.438,540.702,538.82,0.0
51878.0,STARLINK-3575,PAYLOAD,2024-05-30 21:42:09,15.08833918,0.0001342,53.2181,37.1376,96.96,263.1545,1.2277e-06,-2.68e-06,0.0,0 STARLINK-3575,1 51878U 22022AC  24151.90427252 -.00000268  00000-0  12277-5 0  9992,2 51878  53.2181  37.1376 0001342  96.9600 263.1545 15.08833918125323,6917.899,95.438,540.692,538.836,0.0
51878.0,STARLINK-3575,PAYLOAD,2024-05-31 02:28:18,15.08832379,0.0001372,53.2184,36.2464,99.5186,260.5961,-1.4941e-05,-5.26e-06,0.0,0 STARLINK-3575,1 51878U 22022AC  24152.10299470 -.00000526  00000-0 -14941-4 0  9991,2 51878  53.2184  36.2464 0001372  99.5186 260.5961 15.08832379125351,6917.904,95.438,540.718,538.82,0.0
51878.0,STARLINK-3575,PAYLOAD,2024-05-31 23:08:19,15.08836337,0.0001499,53.2191,32.3859,95.0625,265.0538,3.9702e-05,3.44e-06,0.0,0 STARLINK-3575,1 51878U 22022AC  24152.96411288  .00000344  00000-0  39702-4 0  9996,2 51878  53.2191  32.3859 0001499  95.0625 265.0538 15.08836337125485,6917.892,95.438,540.794,538.72,0.0
51878.0,STARLINK-3575,PAYLOAD,2024-06-01 02:19:05,15.08840558,0.0001367,53.2185,31.7879,84.479,275.6358,4.7662e-05,4.71e-06,0.0,0 STARLINK-3575,1 51878U 22022AC  24153.09658958  .00000471  00000-0  47662-4 0  9993,2 51878  53.2185  31.7879 0001367  84.4790 275.6358 15.08840558125502,6917.879,95.438,540.689,538.798,0.0
51878.0,STARLINK-3575,PAYLOAD,2024-06-01 08:40:37,15.08849981,0.000152,53.2194,30.5995,79.7752,280.3412,9.8446e-05,1.28e-05,0.0,0 STARLINK-3575,1 51878U 22022AC  24153.36154194  .00001280  00000-0  98446-4 0  9991,2 51878  53.2194  30.5995 0001520  79.7752 280.3412 15.08849981125541,6917.85,95.437,540.766,538.663,0.0
51878.0,STARLINK-3575,PAYLOAD,2024-06-01 21:23:43,15.08830763,0.0001461,53.2188,28.2221,92.328,267.788,1.4728e-05,-5.4e-07,0.0,0 STARLINK-3575,1 51878U 22022AC  24153.89147866 -.00000054  00000-0  14728-4 0  9997,2 51878  53.2188  28.2221 0001461  92.3280 267.7880 15.08830763125626,6917.909,95.438,540.784,538.763,0.0
51878.0,STARLINK-3575,PAYLOAD,2024-06-02 08:31:25,15.08839662,0.000155,53.219,26.1392,88.1135,272.0035,4.5404e-05,4.35e-06,0.0,0 STARLINK-3575,1 51878U 22022AC  24154.35515348  .00000435  00000-0  45404-4 0  9990,2 51878  53.2190  26.1392 0001550  88.1135 272.0035 15.08839662125691,6917.881,95.438,540.819,538.674,0.0
51878.0,STARLINK-3575,PAYLOAD,2024-06-03 00:25:17,15.08833905,0.0001383,53.2183,23.1647,85.0766,275.0383,-6.4707e-05,-1.317e-05,0.0,0 STARLINK-3575,1 51878U 22022AC  24155.01756305 -.00001317  00000-0 -64707-4 0  9993,2 51878  53.2183  23.1647 0001383  85.0766 275.0383 15.08833905125797,6917.899,95.438,540.721,538.807,0.0
